NORAD_CAT_ID,OBJECT_NAME,OBJECT_TYPE,EPOCH,MEAN_MOTION,ECCENTRICITY,INCLINATION,RA_OF_ASC_NODE,ARG_OF_PERICENTER,MEAN_ANOMALY,BSTAR,MEAN_MOTION_DOT,MEAN_MOTION_DDOT,TLE_LINE0,TLE_LINE1,TLE_LINE2,SEMIMAJOR_AXIS,PERIOD,APOGEE,PERIGEE,DECAYED
55640.0,STARLINK-5069,PAYLOAD,2024-05-30 20:37:25,14.98337705,0.0002918,70.0006,17.8288,266.7054,93.3771,0.00012624,1.414e-05,0.0,0 STARLINK-5069,1 55640U 23021N   24151.85932507  .00001414  00000-0  12624-3 0  9998,2 55640  70.0006  17.8288 0002918 266.7054  93.3771 14.98337705 71756,6950.169,96.107,574.062,570.006,0.0
55640.0,STARLINK-5069,PAYLOAD,2024-05-31 01:25:49,14.98339392,0.0002892,70.0005,17.3237,266.0398,94.043,0.00014068,1.586e-05,0.0,0 STARLINK-5069,1 55640U 23021N   24152.05960285  .00001586  00000-0  14068-3 0  9999,2 55640  70.0005  17.3237 0002892 266.0398  94.0430 14.98339392 71483,6950.164,96.106,574.039,570.019,0.0
55640.0,STARLINK-5069,PAYLOAD,2024-05-31 20:39:26,14.98334565,0.000292,70.0003,15.3033,270.2618,89.8207,5.6865e-05,5.86e-06,0.0,0 STARLINK-5069,1 55640U 23021N   24152.86072514  .00000586  00000-0  56865-4 0  9998,2 55640  70.0003  15.3033 0002920 270.2618  89.8207 14.98334565 71602,6950.179,96.107,574.073,570.014,0.0
55640.0,STARLINK-5069,PAYLOAD,2024-05-31 22:15:34,14.9833431,0.0002882,70.0004,15.1352,268.6611,91.4217,6.9795e-05,7.4e-06,0.0,0 STARLINK-5069,1 55640U 23021N   24152.92748475  .00000740  00000-0  69795-4 0  9999,2 55640  70.0004  15.1352 0002882 268.6611  91.4217 14.98334310 71918,6950.18,96.107,574.048,570.042,0.0
55640.0,STARLINK-5069,PAYLOAD,2024-06-01 07:52:23,14.9833268,0.0002853,70.0004,14.1251,269.4623,90.6209,2.8156e-05,2.43e-06,0.0,0 STARLINK-5069,1 55640U 23021N   24153.32804573  .00000243  00000-0  28156-4 0  9990,2 55640  70.0004  14.1251 0002853 269.4623  90.6209 14.98332680 71971,6950.185,96.107,574.032,570.067,0.0
55640.0,STARLINK-5069,PAYLOAD,2024-06-01 20:41:27,14.98329166,0.0002851,70.0003,12.7787,268.2201,91.8631,-2.1092e-05,-3.45e-06,0.0,0 STARLINK-5069,1 55640U 23021N   24153.86212862 -.00000345  00000-0 -21092-4 0  9990,2 55640  70.0003  12.7787 0002851 268.2201  91.8631 14.98329166 71758,6950.195,96.107,574.042,570.079,0.0
55640.0,STARLINK-5069,PAYLOAD,2024-06-02 14:18:56,14.98329782,0.0002955,70.0001,10.9273,268.9618,91.1203,3.6667e-05,3.45e-06,0.0,0 STARLINK-5069,1 55640U 23021N   24154.59648732  .00000345  00000-0  36667-4 0  9992,2 55640  70.0001  10.9273 0002955 268.9618  91.1203 14.98329782 72168,6950.194,96.107,574.112,570.005,0.0
55640.0,STARLINK-5069,PAYLOAD,2024-06-02 20:43:28,14.98332417,0.0002972,70.0001,10.2539,268.9012,91.1806,4.0907e-05,3.95e-06,0.0,0 STARLINK-5069,1 55640U 23021N   24154.86352542  .00000395  00000-0  40907-4 0  9990,2 55640  70.0001  10.2539 0002972 268.9012  91.1806 14.98332417 71902,6950.185,96.107,574.116,569.985,0.0
55640.0,STARLINK-5069,PAYLOAD,2024-06-03 07:56:25,14.98332658,0.0003097,69.9997,9.0744,268.6239,91.4565,2.5883e-05,2.16e-06,0.0,0 STARLINK-5069,1 55640U 23021N   24155.33084564  .00000216  00000-0  25883-4 0  9997,2 55640  69.9997   9.0744 0003097 268.6239  91.4565 14.98332658 72277,6950.185,96.107,574.202,569.897,0.0
55640.0,STARLINK-5069,PAYLOAD,2024-06-03 20:45:29,14.98332047,0.0003119,69.9997,7.728,269.2922,90.788,0.00011898,1.327e-05,0.0,0 STARLINK-5069,1 55640U 23021N   24155.86492455  .00001327  00000-0  11898-3 0  9991,2 55640  69.9997   7.7280 0003119 269.2922  90.7880 14.98332047 72351,6950.187,96.107,574.219,569.884,0.0
55640.0,STARLINK-5069,PAYLOAD,2024-06-04 07:58:25,14.98333226,0.0003071,69.9997,6.5491,269.4842,90.5965,0.00010723,1.187e-05,0.0,0 STARLINK-5069,1 55640U 23021N   24156.33224408  .00001187  00000-0  10723-3 0  9995,2 55640  69.9997   6.5491 0003071 269.4842  90.5965 14.98333226 72422,6950.183,96.107,574.182,569.914,0.0
55640.0,STARLINK-5069,PAYLOAD,2024-06-04 20:47:30,14.98335088,0.0003082,69.9961,5.2026,269.8234,90.2571,7.9706e-05,8.58e-06,0.0,0 STARLINK-5069,1 55640U 23021N   24156.86632252  .00000858  00000-0  79706-4 0  9994,2 55640  69.9961   5.2026 0003082 269.8234  90.2571 14.98335088 72208,6950.177,96.107,574.184,569.9,0.0
55640.0,STARLINK-5069,PAYLOAD,2024-06-04 23:59:46,14.98335558,0.0003083,69.9963,4.8659,269.9667,90.1139,8.1494e-05,8.8e-06,0.0,0 STARLINK-5069,1 55640U 23021N   24156.99984183  .00000880  00000-0  81494-4 0  9993,2 55640  69.9963   4.8659 0003083 269.9667  90.1139 14.98335558 72525,6950.176,96.107,574.183,569.898,0.0
55640.0,STARLINK-5069,PAYLOAD,2024-06-05 20:49:31,14.98324731,0.0003007,70.0015,2.6778,273.3393,86.7422,3.7462e-05,3.54e-06,0.0,0 STARLINK-5069,1 55640U 23021N   24157.86773016  .00000354  00000-0  37462-4 0  9993,2 55640  70.0015   2.6778 0003007 273.3393  86.7422 14.98324731 72353,6950.209,96.107,574.164,569.984,0.0
55640.0,STARLINK-5069,PAYLOAD,2024-06-06 06:26:20,14.9832578,0.0002811,69.9998,1.6656,278.0632,82.0208,0.00013026,1.461e-05,0.0,0 STARLINK-5069,1 55640U 23021N   24158.26828853  .00001461  00000-0  13026-3 0  9997,2 55640  69.9998   1.6656 0002811 278.0632  82.0208 14.98325780 72710,6950.206,96.107,574.025,570.117,0.0
55640.0,STARLINK-5069,PAYLOAD,2024-06-07 00:03:48,14.98334714,0.0002991,69.9986,359.8135,280.5688,79.5134,0.00014615,1.651e-05,0.0,0 STARLINK-5069,1 55640U 23021N   24159.00264037  .00001651  00000-0  14615-3 0  9994,2 55640  69.9986 359.8135 0002991 280.5688  79.5134 14.98334714 72520,6950.178,96.107,574.122,569.965,0.0
55640.0,STARLINK-5069,PAYLOAD,2024-06-07 22:29:41,14.9833468,0.0003147,69.9987,357.4586,274.6703,85.4097,8.6576e-05,9.4e-06,0.0,0 STARLINK-5069,1 55640U 23021N   24159.93728028  .00000940  00000-0  86576-4 0  9997,2 55640  69.9987 357.4586 0003147 274.6703  85.4097 14.98334680 72965,6950.178,96.107,574.231,569.856,0.0
55640.0,STARLINK-5069,PAYLOAD,2024-06-08 06:30:21,14.98330057,0.000293,70.0024,356.6178,274.0342,86.0482,0.00012593,1.41e-05,0.0,0 STARLINK-5069,1 55640U 23021N   24160.27108231  .00001410  00000-0  12593-3 0  9994,2 55640  70.0024 356.6178 0002930 274.0342  86.0482 14.98330057 73016,6950.193,96.107,574.094,570.021,0.0
55640.0,STARLINK-5069,PAYLOAD,2024-06-08 22:31:42,14.98326349,0.0002844,70.0029,354.9351,270.7455,89.3379,-2.3583e-05,-3.74e-06,0.0,0 STARLINK-5069,1 55640U 23021N   24160.93868698 -.00000374  00000-0 -23583-4 0  9999,2 55640  70.0029 354.9351 0002844 270.7455  89.3379 14.98326349 73118,6950.204,96.107,574.046,570.093,0.0
55640.0,STARLINK-5069,PAYLOAD,2024-06-09 12:56:54,14.9833027,0.0002888,70.002,353.4199,270.7723,89.3105,2.0094e-05,1.47e-06,0.0,0 STARLINK-5069,1 55640U 23021N   24161.53952443  .00000147  00000-0  20094-4 0  9998,2 55640  70.0020 353.4199 0002888 270.7723  89.3105 14.98330270 73204,6950.192,96.107,574.064,570.05,0.0
55640.0,STARLINK-5069,PAYLOAD,2024-06-09 22:33:43,14.98329302,0.0002911,70.0014,352.409,270.3554,89.7272,2.6764e-05,2.26e-06,0.0,0 STARLINK-5069,1 55640U 23021N   24161.94008476  .00000226  00000-0  26764-4 0  9999,2 55640  70.0014 352.4090 0002911 270.3554  89.7272 14.98329302 73260,6950.195,96.107,574.083,570.037,0.0
55640.0,STARLINK-5069,PAYLOAD,2024-06-10 00:09:51,14.98331449,0.0002945,70.0013,352.2407,270.4492,89.6329,4.377e-05,4.29e-06,0.0,0 STARLINK-5069,1 55640U 23021N   24162.00684295  .00000429  00000-0  43770-4 0  9997,2 55640  70.0013 352.2407 0002945 270.4492  89.6329 14.98331449 72972,6950.188,96.107,574.1,570.007,0.0
55640.0,STARLINK-5069,PAYLOAD,2024-06-10 14:35:03,14.98329448,0.0003044,70.0003,350.7262,269.9722,90.1088,0.00012192,1.362e-05,0.0,0 STARLINK-5069,1 55640U 23021N   24162.60768245  .00001362  00000-0  12192-3 0  9991,2 55640  70.0003 350.7262 0003044 269.9722  90.1088 14.98329448 73362,6950.195,96.107,574.175,569.944,0.0
55640.0,STARLINK-5069,PAYLOAD,2024-06-10 22:35:43,14.98334419,0.0003021,70.0004,349.8846,270.3647,89.7165,0.00016228,1.844e-05,0.0,0 STARLINK-5069,1 55640U 23021N   24162.94147901  .00001844  00000-0  16228-3 0  9997,2 55640  70.0004 349.8846 0003021 270.3647  89.7165 14.98334419 73417,6950.179,96.107,574.144,569.945,0.0
55640.0,STARLINK-5069,PAYLOAD,2024-06-11 00:11:51,14.98335745,0.0003032,70.0004,349.7163,270.3667,89.7145,0.00017736,2.024e-05,0.0,0 STARLINK-5069,1 55640U 23021N   24163.00823783  .00002024  00000-0  17736-3 0  9990,2 55640  70.0004 349.7163 0003032 270.3667  89.7145 14.98335745 73121,6950.175,96.107,574.147,569.933,0.0
55640.0,STARLINK-5069,PAYLOAD,2024-06-11 13:00:56,14.98333436,0.0002995,70.0005,348.3697,270.3346,89.747,0.00010399,1.148e-05,0.0,0 STARLINK-5069,1 55640U 23021N   24163.54232048  .00001148  00000-0  10399-3 0  9991,2 55640  70.0005 348.3697 0002995 270.3346  89.7470 14.98333436 73508,6950.182,96.107,574.129,569.966,0.0
55640.0,STARLINK-5069,PAYLOAD,2024-06-12 05:02:17,14.983309,0.0002972,70.0003,346.6864,270.6111,89.4707,5.1512e-05,5.22e-06,0.0,0 STARLINK-5069,1 55640U 23021N   24164.20992135  .00000522  00000-0  51512-4 0  9993,2 55640  70.0003 346.6864 0002972 270.6111  89.4707 14.98330900 73302,6950.19,96.107,574.121,569.99,0.0
55640.0,STARLINK-5069,PAYLOAD,2024-06-12 21:03:38,14.98325665,0.0002822,70.0007,345.0044,264.2825,95.8012,-6.0906e-05,-8.2e-06,0.0,0 STARLINK-5069,1 55640U 23021N   24164.87752731 -.00000820  00000-0 -60906-4 0  9992,2 55640  70.0007 345.0044 0002822 264.2825  95.8012 14.98325665 73700,6950.206,96.107,574.033,570.11,0.0
55640.0,STARLINK-5069,PAYLOAD,2024-06-13 05:04:18,14.98329073,0.0002829,70.0007,344.1628,264.501,95.5827,-1.7635e-05,-3.03e-06,0.0,0 STARLINK-5069,1 55640U 23021N   24165.21132451 -.00000303  00000-0 -17635-4 0  9999,2 55640  70.0007 344.1628 0002829 264.5010  95.5827 14.98329073 73454,6950.196,96.107,574.027,570.095,0.0
55640.0,STARLINK-5069,PAYLOAD,2024-06-13 14:41:06,14.98334542,0.0002931,70.0004,343.1524,264.3764,95.7061,1.9937e-05,1.45e-06,0.0,0 STARLINK-5069,1 55640U 23021N   24165.61187917  .00000145  00000-0  19937-4 0  9999,2 55640  70.0004 343.1524 0002931 264.3764  95.7061 14.98334542 73812,6950.179,96.107,574.081,570.007,0.0
